
# Worst residual: 3.89 km
# MJD 61025.000000 (2025 Dec 16  0:00)
A116CgX = A116I21
1 99999U 24048Z   25350.49919926  .00000000  00000-0  00000-0 0 25489
2 99999 018.6796 323.6860 8995043 214.8784 200.9658 00.46185506    09

# Worst residual: 15.75 km
# MJD 61026.000000 (2025 Dec 17  0:00)
A116CgX = A116I21
1 99999U 24048Z   25351.49919926  .00000000  00000-0  00000-0 0 25480
2 99999 018.6735 323.6144 8991853 214.9972 007.1480 00.46213032    08

# Worst residual: 4.63 km
# MJD 61027.000000 (2025 Dec 18  0:00)
A116CgX = A116I21
1 99999U 24048Z   25352.49919926  .00000000  00000-0  00000-0 0 25481
2 99999 018.6405 323.4998 8995153 215.1570 173.3485 00.46189154    09

# Worst residual: 13.61 km
# MJD 61028.000000 (2025 Dec 19  0:00)
A116CgX = A116I21
1 99999U 24048Z   25353.49919926  .00000000  00000-0  00000-0 0 25482
2 99999 018.6393 323.4484 8991092 215.2555 339.4960 00.46213068    02

# Worst residual: 5.59 km
# MJD 61029.000000 (2025 Dec 20  0:00)
A116CgX = A116I21
1 99999U 24048Z   25354.49919926  .00000000  00000-0  00000-0 0 25483
2 99999 018.6058 323.3264 8994228 215.4191 145.7200 00.46194517    09

# Worst residual: 15.85 km
# MJD 61030.000000 (2025 Dec 21  0:00)
A116CgX = A116I21
1 99999U 24048Z   25355.49919926  .00000000  00000-0  00000-0 0 25484
2 99999 018.6163 323.3110 8989741 215.4766 311.8968 00.46189943    02

# Worst residual: 11.03 km
# MJD 61031.000000 (2025 Dec 22  0:00)
A116CgX = A116I21
1 99999U 24048Z   25356.49919926  .00000000  00000-0  00000-0 0 25485
2 99999 018.5766 323.1733 8992650 215.6512 118.1122 00.46193510    08

# Worst residual: 12.17 km
# MJD 61032.000000 (2025 Dec 23  0:00)
A116CgX = A116I21
1 99999U 24048Z   25357.49919926  .00000000  00000-0  00000-0 0 25486
2 99999 018.5857 323.1562 8991030 215.7116 284.3533 00.46183513    05

# Worst residual: 17.49 km
# MJD 61033.000000 (2025 Dec 24  0:00)
A116CgX = A116I21
1 99999U 24048Z   25358.49919926  .00000000  00000-0  00000-0 0 25487
2 99999 018.5437 323.0135 8991789 215.8978 090.5412 00.46175990    05

# Worst residual: 6.08 km
# MJD 61034.000000 (2025 Dec 25  0:00)
A116CgX = A116I21
1 99999U 24048Z   25359.49919926  .00000000  00000-0  00000-0 0 25488
2 99999 018.5054 322.8880 8995401 216.0654 256.6997 00.46182776    06

# Worst residual: 13.59 km
# MJD 61035.000000 (2025 Dec 26  0:00)
A116CgX = A116I21
1 99999U 24048Z   25360.49919926  .00000000  00000-0  00000-0 0 25480
2 99999 018.4867 322.7686 8995128 216.2562 062.9007 00.46164274    09

# Worst residual: 9.89 km
# MJD 61036.000000 (2025 Dec 27  0:00)
A116CgX = A116I21
1 99999U 24048Z   25361.49919926  .00000000  00000-0  00000-0 0 25481
2 99999 018.4016 322.5595 8997542 216.5164 228.9027 00.46160987    08

# Worst residual: 18.85 km
# MJD 61037.000000 (2025 Dec 28  0:00)
A116CgX = A116I21
1 99999U 24048Z   25362.49919926  .00000000  00000-0  00000-0 0 25482
2 99999 018.3777 322.4113 8996640 216.7352 035.0399 00.46186207    07

# Worst residual: 8.05 km
# MJD 61038.000000 (2025 Dec 29  0:00)
A116CgX = A116I21
1 99999U 24048Z   25363.49919926  .00000000  00000-0  00000-0 0 25483
2 99999 018.3348 322.2815 8995110 216.9299 201.1903 00.46169658    09

# Worst residual: 15.81 km
# MJD 61039.000000 (2025 Dec 30  0:00)
A116CgX = A116I21
1 99999U 24048Z   25364.49919926  .00000000  00000-0  00000-0 0 25484
2 99999 018.3237 322.1941 8988676 217.0591 007.2618 00.46211696    09

# Worst residual: 3.32 km
# MJD 61040.000000 (2025 Dec 31  0:00)
A116CgX = A116I21
1 99999U 24048Z   25365.49919926  .00000000  00000-0  00000-0 0 25485
2 99999 018.2895 322.0683 8991440 217.2285 173.5066 00.46197123    07
